{
  "type": "FeatureCollection",
  "features": [
    {
      "type": "Feature",
      "properties": {
        "norad_id": 66541,
        "name": "STARLINK-35796",
        "group": "last-30-days",
        "lat": -35.439946703171,
        "lon": -15.13030604515411,
        "alt_km": 346.4244634463694,
        "timestamp": "2025-12-02T10:50:46.053115+00:00",
        "meta_object_name": "STARLINK-35796",
        "meta_object_id": "2025-265AB",
        "meta_epoch": "2025-12-02T04:00:03.998880",
        "meta_mean_motion": 15.75022518,
        "meta_eccentricity": 0.0001828,
        "meta_inclination": 42.9998,
        "meta_ra_of_asc_node": 116.8017,
        "meta_arg_of_pericenter": 258.7929,
        "meta_mean_anomaly": 160.2988,
        "meta_ephemeris_type": 0,
        "meta_classification_type": "U",
        "meta_norad_cat_id": 66541,
        "meta_element_set_no": 999,
        "meta_rev_at_epoch": 329,
        "meta_bstar": 6.5766e-05,
        "meta_mean_motion_dot": 9.629e-05,
        "meta_mean_motion_ddot": 0,
        "tle_line1": "1 66541U 25265AB  25336.16671295  .00009629  00000+0  65766-4 0  9997",
        "tle_line2": "2 66541  42.9998 116.8017 0001828 258.7929 160.2988 15.75022518  3294"
      },
      "geometry": {
        "type": "Point",
        "coordinates": [
          -15.13030604515411,
          -35.439946703171
        ]
      }
    },
    {
      "type": "Feature",
      "properties": {
        "norad_id": 66542,
        "name": "STARLINK-35833",
        "group": "last-30-days",
        "lat": -36.26624256800371,
        "lon": -12.996455553276066,
        "alt_km": 346.4053514523248,
        "timestamp": "2025-12-02T10:50:46.053125+00:00",
        "meta_object_name": "STARLINK-35833",
        "meta_object_id": "2025-265AC",
        "meta_epoch": "2025-12-02T04:00:03.998880",
        "meta_mean_motion": 15.75000836,
        "meta_eccentricity": 0.0001802,
        "meta_inclination": 43.0001,
        "meta_ra_of_asc_node": 116.7973,
        "meta_arg_of_pericenter": 258.593,
        "meta_mean_anomaly": 162.4195,
        "meta_ephemeris_type": 0,
        "meta_classification_type": "U",
        "meta_norad_cat_id": 66542,
        "meta_element_set_no": 999,
        "meta_rev_at_epoch": 329,
        "meta_bstar": 0.00058479,
        "meta_mean_motion_dot": 0.00090167,
        "meta_mean_motion_ddot": 0,
        "tle_line1": "1 66542U 25265AC  25336.16671295  .00090167  00000+0  58479-3 0  9997",
        "tle_line2": "2 66542  43.0001 116.7973 0001802 258.5930 162.4195 15.75000836  3297"
      },
      "geometry": {
        "type": "Point",
        "coordinates": [
          -12.996455553276066,
          -36.26624256800371
        ]
      }
    },
    {
      "type": "Feature",
      "properties": {
        "norad_id": 66543,
        "name": "STARLINK-35315",
        "group": "last-30-days",
        "lat": -37.046476113477915,
        "lon": -10.838797137545134,
        "alt_km": 346.45308456020484,
        "timestamp": "2025-12-02T10:50:46.053135+00:00",
        "meta_object_name": "STARLINK-35315",
        "meta_object_id": "2025-265AD",
        "meta_epoch": "2025-12-02T04:00:03.998880",
        "meta_mean_motion": 15.75030043,
        "meta_eccentricity": 0.0001857,
        "meta_inclination": 43.0001,
        "meta_ra_of_asc_node": 116.792,
        "meta_arg_of_pericenter": 261.7773,
        "meta_mean_anomaly": 161.1329,
        "meta_ephemeris_type": 0,
        "meta_classification_type": "U",
        "meta_norad_cat_id": 66543,
        "meta_element_set_no": 999,
        "meta_rev_at_epoch": 318,
        "meta_bstar": 9.4347e-05,
        "meta_mean_motion_dot": 0.00014033,
        "meta_mean_motion_ddot": 0,
        "tle_line1": "1 66543U 25265AD  25336.16671295  .00014033  00000+0  94347-4 0  9991",
        "tle_line2": "2 66543  43.0001 116.7920 0001857 261.7773 161.1329 15.75030043  3187"
      },
      "geometry": {
        "type": "Point",
        "coordinates": [
          -10.838797137545134,
          -37.046476113477915
        ]
      }
    },
    {
      "type": "Feature",
      "properties": {
        "norad_id": 66544,
        "name": "STARLINK-35728",
        "group": "last-30-days",
        "lat": -37.79309295665616,
        "lon": -8.616294767471159,
        "alt_km": 346.5462281699174,
        "timestamp": "2025-12-02T10:50:46.053145+00:00",
        "meta_object_name": "STARLINK-35728",
        "meta_object_id": "2025-265AE",
        "meta_epoch": "2025-12-02T04:00:03.998880",
        "meta_mean_motion": 15.75034719,
        "meta_eccentricity": 0.0001792,
        "meta_inclination": 43,
        "meta_ra_of_asc_node": 116.7875,
        "meta_arg_of_pericenter": 265.7548,
        "meta_mean_anomaly": 159.0759,
        "meta_ephemeris_type": 0,
        "meta_classification_type": "U",
        "meta_norad_cat_id": 66544,
        "meta_element_set_no": 999,
        "meta_rev_at_epoch": 329,
        "meta_bstar": 4.0026e-05,
        "meta_mean_motion_dot": 5.674e-05,
        "meta_mean_motion_ddot": 0,
        "tle_line1": "1 66544U 25265AE  25336.16671295  .00005674  00000+0  40026-4 0  9998",
        "tle_line2": "2 66544  43.0000 116.7875 0001792 265.7548 159.0759 15.75034719  3297"
      },
      "geometry": {
        "type": "Point",
        "coordinates": [
          -8.616294767471159,
          -37.79309295665616
        ]
      }
    },
    {
      "type": "Feature",
      "properties": {
        "norad_id": 66545,
        "name": "SHIJIAN-30A",
        "group": "last-30-days",
        "lat": -51.26089949756001,
        "lon": -79.96487409435261,
        "alt_km": 519.832471501808,
        "timestamp": "2025-12-02T10:50:46.053159+00:00",
        "meta_object_name": "SHIJIAN-30A",
        "meta_object_id": "2025-266A",
        "meta_epoch": "2025-12-02T03:21:26.417376",
        "meta_mean_motion": 15.15296003,
        "meta_eccentricity": 0.0012742,
        "meta_inclination": 51.7993,
        "meta_ra_of_asc_node": 22.5132,
        "meta_arg_of_pericenter": 318.5143,
        "meta_mean_anomaly": 41.4865,
        "meta_ephemeris_type": 0,
        "meta_classification_type": "U",
        "meta_norad_cat_id": 66545,
        "meta_element_set_no": 999,
        "meta_rev_at_epoch": 197,
        "meta_bstar": 0.00077079,
        "meta_mean_motion_dot": 0.00014442,
        "meta_mean_motion_ddot": 0,
        "tle_line1": "1 66545U 25266A   25336.13988909  .00014442  00000+0  77079-3 0  9990",
        "tle_line2": "2 66545  51.7993  22.5132 0012742 318.5143  41.4865 15.15296003  1975"
      },
      "geometry": {
        "type": "Point",
        "coordinates": [
          -79.96487409435261,
          -51.26089949756001
        ]
      }
    },
    {
      "type": "Feature",
      "properties": {
        "norad_id": 66546,
        "name": "SHIJIAN-30B",
        "group": "last-30-days",
        "lat": -50.10217265716775,
        "lon": -88.55612109309239,
        "alt_km": 521.4424423519858,
        "timestamp": "2025-12-02T10:50:46.053176+00:00",
        "meta_object_name": "SHIJIAN-30B",
        "meta_object_id": "2025-266B",
        "meta_epoch": "2025-12-02T03:22:56.286336",
        "meta_mean_motion": 15.15351745,
        "meta_eccentricity": 0.0010409,
        "meta_inclination": 51.7976,
        "meta_ra_of_asc_node": 22.5183,
        "meta_arg_of_pericenter": 321.4153,
        "meta_mean_anomaly": 38.6079,
        "meta_ephemeris_type": 0,
        "meta_classification_type": "U",
        "meta_norad_cat_id": 66546,
        "meta_element_set_no": 999,
        "meta_rev_at_epoch": 197,
        "meta_bstar": 0.00087524,
        "meta_mean_motion_dot": 0.00016463,
        "meta_mean_motion_ddot": 0,
        "tle_line1": "1 66546U 25266B   25336.14092924  .00016463  00000+0  87524-3 0  9996",
        "tle_line2": "2 66546  51.7976  22.5183 0010409 321.4153  38.6079 15.15351745  1975"
      },
      "geometry": {
        "type": "Point",
        "coordinates": [
          -88.55612109309239,
          -50.10217265716775
        ]
      }
    },
    {
      "type": "Feature",
      "properties": {
        "norad_id": 66547,
        "name": "SHIJIAN-30C",
        "group": "last-30-days",
        "lat": -48.80646567082621,
        "lon": -94.80242296750897,
        "alt_km": 520.5915952298101,
        "timestamp": "2025-12-02T10:50:46.053187+00:00",
        "meta_object_name": "SHIJIAN-30C",
        "meta_object_id": "2025-266C",
        "meta_epoch": "2025-12-02T03:24:04.264128",
        "meta_mean_motion": 15.15393977,
        "meta_eccentricity": 0.0011316,
        "meta_inclination": 51.7987,
        "meta_ra_of_asc_node": 22.5238,
        "meta_arg_of_pericenter": 313.6645,
        "meta_mean_anomaly": 46.3392,
        "meta_ephemeris_type": 0,
        "meta_classification_type": "U",
        "meta_norad_cat_id": 66547,
        "meta_element_set_no": 999,
        "meta_rev_at_epoch": 197,
        "meta_bstar": 0.00075633,
        "meta_mean_motion_dot": 0.00014199,
        "meta_mean_motion_ddot": 0,
        "tle_line1": "1 66547U 25266C   25336.14171602  .00014199  00000+0  75633-3 0  9990",
        "tle_line2": "2 66547  51.7987  22.5238 0011316 313.6645  46.3392 15.15393977  1973"
      },
      "geometry": {
        "type": "Point",
        "coordinates": [
          -94.80242296750897,
          -48.80646567082621
        ]
      }
    }
  ]
}